KAITUO 1B               
1 40912U 15049P   17339.82145056  .00001642  00000-0  83309-4 0  9999
2 40912  97.4503 344.9603 0014822 331.4164 152.2694 15.18257570122324
TIANWANG 1C (TW-1C)     
1 40926U 15051B   17339.80097066  .00007530  00000-0  15608-3 0  9990
2 40926  97.2099  18.1829 0008920 265.2148 205.8608 15.45986043123409
TIANWANG 1B (TW-1B)     
1 40927U 15051C   17339.86552913  .00007472  00000-0  16109-3 0  9996
2 40927  97.2183  18.1817 0008845 278.9307 184.4218 15.44827769123345
TIANWANG 1A (TW-1A)     
1 40928U 15051D   17339.86439992  .00002646  00000-0  73928-4 0  9999
2 40928  97.2088  12.5653 0010761 305.9754 175.8009 15.37537390123064
LAPAN-A2 (IO-86)        
1 40931U 15052B   17339.60931928  .00000700  00000-0  85911-5 0  9997
2 40931   5.9989  90.4294 0012553 147.8580 212.2336 14.76557756118345
LQSAT                   
1 40958U 15057A   17339.77219656  .00000046  00000-0  14951-4 0  9994
2 40958  97.9634  51.9513 0016855 234.3713 125.5918 14.73004809116373
CHUBUSAT-2              
1 41338U 16012B   17339.52740748  .00000337  00000-0  19680-4 0  9990
2 41338  31.0031 103.9606 0014034 315.4741  44.4767 14.99881761 98734
CHUBUSAT-3              
1 41339U 16012C   17339.56579211  .00000405  00000-0  24874-4 0  9997
2 41339  31.0083 102.5954 0013950 323.2586  36.7097 15.00076811 98727
OUFTI-1                 
1 41458U 16025C   17339.81208387  .00002239  00000-0  12066-3 0  9990
2 41458  98.1654  27.1248 0172857  75.9317 286.1031 15.04017953 88364
E-ST@R-II               
1 41459U 16025D   17339.78758113  .00001379  00000-0  76021-4 0  9990
2 41459  98.1664  27.0105 0174907  76.4239 285.6384 15.03798224 88354
AAUSAT 4                
1 41460U 16025E   17339.80165474  .00002334  00000-0  12519-3 0  9990
2 41460  98.1606  27.2645 0166009  73.8466 288.0940 15.04988175 88396
NUSAT 1 (LO-87)         
1 41557U 16033B   17339.85726502  .00001473  00000-0  56892-4 0  9992
2 41557  97.4521  59.3346 0015441 118.4697 241.8100 15.27786540 84635
BEESAT-4                
1 41619U 16040W   17339.16468572  .00001391  00000-0  64790-4 0  9998
2 41619  97.4423  39.7781 0011736 182.6355 177.4821 15.21521488 68589
PRATHAM                 
1 41783U 16059A   17339.16092044  .00000071  00000-0  23278-4 0  9997
2 41783  98.1462  38.5706 0033205 346.8270  13.2062 14.62884598 63599
ALSAT 1N                
1 41789U 16059G   17339.75925545  .00000101  00000-0  28425-4 0  9992
2 41789  98.1470  39.9969 0027997 339.0134  20.9909 14.64107163 63711
NAYIF-1 (EO-88)         
1 42017U 17008BX  17339.54971966  .00001653  00000-0  71633-4 0  9999
2 42017  97.4750  40.5544 0006135 354.9902   5.1273 15.23798707 44574
LILACSAT-1              
1 42725U 98067ME  17339.83435784  .00021412  00000-0  25174-3 0  9997
2 42725  51.6384 257.9803 0004616 209.7364 150.3368 15.61371022 30233
MAX VALIER SAT          
1 42778U 17036P   17339.24872827  .00001036  00000-0  49919-4 0  9994
2 42778  97.4313  36.9289 0013564  35.3730 324.8403 15.20879033 25025
FOX-1B (AO-91)          
1 43017U 17073E   17339.85208381  .00000391  00000-0  36367-4 0  9993
2 43017  97.6924 274.2447 0260659 180.6131 179.4801 14.77787117  2554
